# From MPC106342
C/1995 O1 (Hale-Bopp),e,89.0108,283.3167,130.5580,179.3462,0.0004104,0.99494288,0.0000,03/29.7229/1997,2000,g -2.0,4.0
# From NK 1615
P/1996 R2 (Lagerkvist),e,2.6003,40.0331,333.3097,3.775050,0.1343755,0.31401891,85.7819,11/11.0/2020,2000,g 11.5,4.0
# From MPC 30063
P/1997 B1 (Kobayashi),e,12.3396,328.8851,183.3614,8.567436,0.0393032,0.76010326,340.2380,11/11.0/2020,2000,g 15.0,2.0
# From MPC 75703
P/1998 VS24 (LINEAR),e,5.0252,159.0310,244.6809,4.529694,0.1022353,0.24195545,105.0983,11/11.0/2020,2000,g 13.0,2.0
# From NK 731
P/1999 RO28 (LONEOS),e,7.5666,137.8833,231.2702,3.426791,0.1553720,0.67204382,78.2920,11/11.0/2020,2000,g 20.0,2.0
# From MPC 75704
P/1999 XN120 (Catalina),e,5.0297,285.2955,161.9045,4.178974,0.1153718,0.21036131,144.1298,11/11.0/2020,2000,g 13.5,2.0
# From NK 744
P/2000 R2 (LINEAR),e,11.6844,160.2948,176.5145,3.466048,0.1527398,0.53155871,78.2934,11/11.0/2020,2000,g 18.0,4.0
# From MPC 43019
P/2001 H5 (NEAT),e,8.3674,328.6852,224.8694,6.098142,0.0654497,0.59869702,121.0514,11/11.0/2020,2000,g 12.0,4.0
# From MPC 75704
P/2001 Q6 (NEAT),e,56.9020,22.1281,42.9467,7.950454,0.0439659,0.82280452,307.0161,11/11.0/2020,2000,g 13.5,4.0
# From MPC 47727
P/2002 EJ57 (LINEAR),e,4.9761,330.3290,167.3616,6.473252,0.0598440,0.59282603,52.4521,11/11.0/2020,2000,g 12.5,4.0
# From MPEC 2020-SI8
P/2002 T5 (LINEAR),e,30.8529,123.0884,326.7672,7.005293,0.0531575,0.43789790,338.8000,11/11.0/2020,2000,g  8.0,4.0
# From MPC109588
P/2002 T6 (NEAT-LINEAR),e,10.8332,206.4648,219.5881,7.669855,0.0464006,0.56002491,297.3264,11/11.0/2020,2000,g 10.5,4.0
# From MPC 50354
P/2003 F2 (NEAT),e,11.6047,359.0750,191.9136,6.489563,0.0596185,0.54219078,21.7447,11/11.0/2020,2000,g 16.5,2.0
# From MPC 50139
P/2003 QX29 (NEAT),e,11.3898,264.5892,37.3983,8.032917,0.0432907,0.47296591,285.1977,11/11.0/2020,2000,g  8.5,4.0
# From MPC105235
P/2003 T12 (SOHO),e,11.0168,174.5734,219.7699,2.586220,0.2369768,0.76964079,44.5846,11/11.0/2020,2000,g 17.0,4.0
# From MPC 82312
P/2004 A1 (LONEOS),e,10.5516,124.8476,21.4251,7.955591,0.0439233,0.30937633,260.5635,11/11.0/2020,2000,g  6.5,4.0
# From MPC 54558
P/2004 DO29 (Spacewatch-LINEAR),e,14.5317,147.3802,40.7255,7.282649,0.0501499,0.44134210,294.7219,11/11.0/2020,2000,g 13.5,2.0
# From MPC 54823
P/2004 FY140 (LINEAR),e,2.1348,326.7617,242.4618,4.901613,0.0908229,0.16863465,175.8261,11/11.0/2020,2000,g 12.5,2.0
# From MPC 53304
P/2004 R3 (LINEAR-NEAT),e,12.8258,305.4806,38.7444,4.793591,0.0939102,0.26128618,329.8788,11/11.0/2020,2000,g 14.5,4.0
# From MPC 55521
P/2004 V3 (Siding Spring),e,50.4323,356.1154,322.2979,7.144189,0.0516149,0.44632182,302.9177,11/11.0/2020,2000,g 11.5,4.0
# From MPC 75705
P/2004 V5 (LINEAR-Hill),e,19.3452,47.7692,87.7895,7.975658,0.0437577,0.44353759,251.8005,11/11.0/2020,2000,g  8.0,4.0
# From MPC 54164
P/2005 E1 (Tubbiolo),e,4.2637,335.5728,194.1263,7.037370,0.0527945,0.37519253,304.4082,11/11.0/2020,2000,g 10.0,4.0
# From MPC 54823
P/2005 GF8 (LONEOS),e,1.1936,314.8347,285.1230,5.863134,0.0694240,0.51817567,28.3534,11/11.0/2020,2000,g 11.5,4.0
# From MPC 79019
P/2005 J1 (McNaught),e,31.7667,268.8031,338.9567,3.569758,0.1461322,0.56988926,111.1024,11/11.0/2020,2000,g 16.5,4.0
# From MPC 74246
P/2005 L1 (McNaught),e,7.7386,138.2476,149.6959,3.975236,0.1243540,0.20935633,315.6537,11/11.0/2020,2000,g  9.5,4.0
# From MPC 75706
P/2005 S2 (Skiff),e,3.1357,161.1958,229.1605,8.017406,0.0434163,0.19686408,230.1729,11/11.0/2020,2000,g  7.5,4.0
# From MPC 75706
P/2005 SB216 (LONEOS),e,24.0718,1.2408,83.3945,7.127000,0.0518017,0.46330056,261.7754,11/11.0/2020,2000,g 12.0,2.0
# From MPC 55717
P/2005 T2 (Christensen),e,8.2927,260.1573,58.8095,3.845928,0.1306780,0.41640705,28.3097,11/11.0/2020,2000,g 14.5,4.0
# From MPC 73461
P/2005 T3 (Read),e,6.2248,27.7444,7.0398,7.577117,0.0472550,0.17392741,260.2086,11/11.0/2020,2000,g  9.0,4.0
# From MPC 73461
P/2005 T4 (SWAN),e,160.1796,25.6656,41.5700,9.360861,0.0344136,0.92993129,190.0512,11/11.0/2020,2000,g 15.0,4.0
# From MPC 75706
P/2005 T5 (Broughton),e,21.3523,57.0076,304.5227,7.291678,0.0500568,0.55197368,276.0683,11/11.0/2020,2000,g 11.0,4.0
# From MPC 56954
P/2005 W3 (Kowalski),e,16.4172,210.0923,200.6754,6.332439,0.0618511,0.54352330,340.5963,11/11.0/2020,2000,g 12.0,4.0
# From MPC 75706
P/2005 XA54 (LONEOS-Hill),e,17.1188,143.6711,15.1381,6.052314,0.0661945,0.71018119,354.7518,11/11.0/2020,2000,g 14.0,4.0
# From MPC 75706
P/2005 Y2 (McNaught),e,19.0961,94.5125,194.0457,6.382716,0.0611217,0.47031038,1.2941,11/11.0/2020,2000,g  9.0,4.0
# From MPC 56954
P/2006 F4 (Spacewatch),e,12.4004,183.8839,31.1722,3.527253,0.1487816,0.33933247,69.3795,11/11.0/2020,2000,g 15.0,4.0
# From MPC 75707
P/2006 HR30 (Siding Spring),e,31.8303,309.9014,117.2917,7.811241,0.0451465,0.84200340,229.3864,11/11.0/2020,2000,g 11.0,4.0
# From MPC 75707
P/2006 S4 (Christensen),e,39.5362,36.0958,305.1513,6.310755,0.0621702,0.50794704,333.2837,11/11.0/2020,2000,g 11.0,4.0
# From MPC 75707
P/2007 A2 (Christensen),e,26.4877,300.9067,186.7614,6.324442,0.0619685,0.55755312,313.6215,11/11.0/2020,2000,g 13.5,4.0
# From MPC 59319
P/2007 B1 (Christensen),e,12.3763,77.6668,46.7530,5.819544,0.0702054,0.58092274,354.6895,11/11.0/2020,2000,g 13.5,4.0
# From MPC 75707
P/2007 C2 (Catalina),e,8.6606,275.6365,179.8817,6.994586,0.0532796,0.46993023,255.4012,11/11.0/2020,2000,g 10.0,4.0
# From MPC 82314
P/2007 K2 (Gibbs),e,7.6368,188.6471,347.4717,7.262427,0.0503595,0.68337841,247.1232,11/11.0/2020,2000,g 14.0,4.0
# From MPC 60925
P/2007 Q2 (Gilmore),e,10.2021,172.1605,162.7779,5.656014,0.0732721,0.67032277,358.8293,11/11.0/2020,2000,g 16.0,4.0
# From MPEC 2020-UQ9
P/2007 R2 (Gibbs),e,1.2135,11.4737,352.3575,3.573020,0.1459321,0.54189023,8.2165,11/11.0/2020,2000,g 17.0,4.0
# From MPC 75708
P/2007 R4 (Garradd),e,20.2269,87.2223,282.6694,5.925577,0.0683295,0.66996490,333.1550,11/11.0/2020,2000,g 14.5,4.0
# From MPC 73462
P/2007 S1 (Zhao),e,5.9631,141.3809,245.7548,3.812488,0.1324010,0.33964271,267.7644,11/11.0/2020,2000,g 13.0,4.0
# From MPC 61994
P/2007 T2 (Kowalski),e,9.7445,3.3753,359.6356,3.047226,0.1852879,0.78521005,155.8814,11/11.0/2020,2000,g 18.5,4.0
# From MPEC 2020-UR0
P/2007 VQ11 (Catalina),e,12.3200,163.8180,277.6602,5.425959,0.0779811,0.50325842,4.3410,11/11.0/2020,2000,g 12.0,4.0
# From MPC 75708
P/2008 CL94 (Lemmon),e,8.3474,33.3327,80.5386,6.160678,0.0644557,0.12024442,339.6931,11/11.0/2020,2000,g  8.0,4.0
# From MPC 75709
P/2008 L2 (Hill),e,25.8560,218.0050,141.2100,6.028637,0.0665848,0.61300062,299.3228,11/11.0/2020,2000,g 12.5,4.0
# From MPC 64114
P/2008 O3 (Boattini),e,32.2471,47.5994,341.0858,8.223424,0.0417951,0.69501935,190.3962,11/11.0/2020,2000,g 13.0,4.0
# From MPC 75709
P/2008 QP20 (LINEAR-Hill),e,7.5211,322.0812,75.6447,3.551801,0.1472418,0.49235735,298.5825,11/11.0/2020,2000,g 15.5,4.0
# From MPC 66204
P/2008 WZ96 (LINEAR),e,7.1126,56.4978,341.8480,3.491039,0.1511026,0.47049112,316.3863,11/11.0/2020,2000,g 13.5,4.0
# From MPC 75710
P/2008 Y3 (McNaught),e,38.7626,262.7896,238.2746,8.045782,0.0431869,0.44555088,187.3297,11/11.0/2020,2000,g  8.5,4.0
# From MPC 75710
P/2009 B1 (Boattini),e,22.2192,297.0914,128.8989,6.735674,0.0563810,0.63463048,243.8262,11/11.0/2020,2000,g 13.0,4.0
# From MPC 75710
P/2009 O3 (Hill),e,16.2631,183.7178,154.3850,7.770784,0.0454995,0.68750469,190.7835,11/11.0/2020,2000,g 12.5,4.0
# From MPC 98557
P/2009 Q1 (Hill),e,14.5054,173.9588,157.1248,5.519988,0.0759971,0.49474717,317.5044,11/11.0/2020,2000,g 11.5,4.0
# From MPEC 2020-SI8
P/2009 Q4 (Boattini),e,11.0152,127.4647,320.2337,3.127940,0.1781626,0.58257346,351.8499,11/11.0/2020,2000,g 15.5,4.0
# From MPC 68902
P/2009 Q5 (McNaught),e,40.9725,160.2615,209.0192,7.438297,0.0485841,0.60862763,198.5965,11/11.0/2020,2000,g 10.0,4.0
# From MPC112389
P/2009 T2 (La Sagra),e,27.5443,215.7880,216.4250,7.724472,0.0459093,0.76505442,182.3298,11/11.0/2020,2000,g 14.0,4.0
# From MPC 75711
P/2009 U4 (McNaught),e,10.0810,55.3587,259.8431,5.082962,0.0860060,0.67607045,352.9376,11/11.0/2020,2000,g 14.0,4.0
# From MPC105235
P/2009 WX51 (Catalina),e,9.5952,31.6853,118.0653,3.079953,0.1823425,0.74025635,359.0226,11/11.0/2020,2000,g 19.0,2.0
# From MPC 74247
P/2009 Y2 (Kowalski),e,29.9293,262.0241,172.1740,6.548917,0.0588098,0.63585639,229.7103,11/11.0/2020,2000,g 13.0,4.0
# From MPC 75711
P/2010 A3 (Hill),e,14.8666,64.0984,41.9307,6.075428,0.0658171,0.73324607,255.7565,11/11.0/2020,2000,g 14.0,4.0
# From MPC 72851
P/2010 A5 (LINEAR),e,5.7979,277.6638,307.0877,5.083579,0.0859903,0.66503576,330.7218,11/11.0/2020,2000,g 13.0,4.0
# From MPC105235
P/2010 B2 (WISE),e,8.9306,0.8481,155.9190,3.109995,0.1797068,0.47990116,355.7648,11/11.0/2020,2000,g 17.0,4.0
# From MPC 75008
P/2010 C1 (Scotti),e,9.1282,141.8862,3.7870,7.102732,0.0520674,0.25861266,208.9105,11/11.0/2020,2000,g  9.5,4.0
# From MPC 75008
P/2010 D2 (WISE),e,57.0848,319.8918,120.0998,6.715532,0.0566348,0.45084736,222.0222,11/11.0/2020,2000,g 16.0,4.0
# From MPC 75009
P/2010 E2 (Jarnac),e,15.4067,177.8251,8.3709,8.637811,0.0388238,0.72028073,150.4104,11/11.0/2020,2000,g 14.0,4.0
# From MPC 72851
P/2010 H2 (Vales),e,14.2728,64.2076,128.2042,3.834523,0.1312614,0.19564692,152.1087,11/11.0/2020,2000,g  6.0,4.0
# From MPC 70361
P/2010 H3 (SOHO),e,23.0924,77.1124,26.1278,3.060069,0.1841226,0.98548964,0.0000,02/07.9630/2021,2000,g 20.0,2.0
# From MPC 73463
P/2010 H4 (Scotti),e,2.3190,44.7480,179.5614,6.589458,0.0582679,0.26759945,221.2153,11/11.0/2020,2000,g 10.5,4.0
# From MPC 74637
P/2010 H5 (Scotti),e,14.0675,24.8092,175.2884,7.158410,0.0514611,0.15370997,199.0414,11/11.0/2020,2000,g 13.0,2.0
# From MPC 98558
P/2010 J3 (McMillan),e,13.2894,106.4090,157.5833,8.969969,0.0366875,0.72728118,136.6958,11/11.0/2020,2000,g 11.0,4.0
# From MPC 84315
P/2010 JC81 (WISE),e,38.7158,30.8418,12.4440,8.111325,0.0426645,0.77666541,149.0660,11/11.0/2020,2000,g  9.0,4.0
# From MPC 74248
P/2010 T2 (PANSTARRS),e,7.9171,59.0627,353.7227,5.512606,0.0761498,0.32153200,266.2475,11/11.0/2020,2000,g 11.5,4.0
# From MPC 98558
